[{"OBJECT_NAME":"STARLINK-5463","OBJECT_ID":"2023-021AX","EPOCH":"2026-03-09T16:02:50.039808","MEAN_MOTION":14.98331273,"ECCENTRICITY":0.00033444,"INCLINATION":70.0007,"RA_OF_ASC_NODE":164.4187,"ARG_OF_PERICENTER":270.3234,"MEAN_ANOMALY":89.7542,"EPHEMERIS_TYPE":0,"CLASSIFICATION_TYPE":"U","NORAD_CAT_ID":55673,"ELEMENT_SET_NO":999,"REV_AT_EPOCH":16928,"BSTAR":-6.0334792e-5,"MEAN_MOTION_DOT":-8.13e-6,"MEAN_MOTION_DDOT":0},{"OBJECT_NAME":"NIGERIASAT-1","OBJECT_ID":"2003-042C","EPOCH":"2026-03-09T23:18:28.284480","MEAN_MOTION":14.90021828,"ECCENTRICITY":0.00412391,"INCLINATION":98.0062,"RA_OF_ASC_NODE":259.4679,"ARG_OF_PERICENTER":255.6174,"MEAN_ANOMALY":104.0464,"EPHEMERIS_TYPE":0,"CLASSIFICATION_TYPE":"U","NORAD_CAT_ID":27941,"ELEMENT_SET_NO":999,"REV_AT_EPOCH":20905,"BSTAR":0.0001905973,"MEAN_MOTION_DOT":1.807e-5,"MEAN_MOTION_DDOT":0}]
